0 COSMOS 2237
1 22565U 93016A   13281.92390638 -.00000066  00000-0 -96891-5 0  9840
2 22565 070.8572 006.7455 0008603 292.7518 194.9692 14.12376627 59259
0 COSMOS 2237
1 22565U 93016A   13283.39590640 -.00000062  00000-0 -73267-5 0  9857
2 22565 070.8572 003.6451 0008660 291.3391 118.6566 14.12376555 59464
0 COSMOS 2237
1 22565U 93016A   13284.46389635 -.00000045  00000-0  18969-5 0  9865
2 22565 070.8571 001.3958 0008707 290.3058 148.3550 14.12376359 59613
0 COSMOS 2237
1 22565U 93016A   13285.74954733 -.00000030  00000-0  10191-4 0  9877
2 22565 070.8569 358.6880 0008778 288.9992 204.7111 14.12376242 59790
0 COSMOS 2237
1 22565U 93016A   13287.14947008 -.00000022  00000-0  14275-4 0  9889
2 22565 070.8566 355.7395 0008840 287.5393 122.0707 14.12376223 59990
0 COSMOS 2237
1 22565U 93016A   13288.51084981 -.00000010  00000-0  20787-4 0  9896
2 22565 070.8563 352.8721 0008911 286.1123 203.4814 14.12376293 60186
0 COSMOS 2237
1 22565U 93016A   13289.65056112 -.00000029  00000-0  10414-4 0  9905
2 22565 070.8560 350.4715 0008952 284.9187 237.9026 14.12376466 60348
0 COSMOS 2237
1 22565U 93016A   13291.41186646 -.00000041  00000-0  43337-5 0  9914
2 22565 070.8557 346.7616 0009038 283.1728 192.4809 14.12376601 60592
0 COSMOS 2237
1 22565U 93016A   13292.47686727 -.00000044  00000-0  23357-5 0  9920
2 22565 070.8556 344.5182 0009062 282.0791 207.0451 14.12376638 60743
0 COSMOS 2237
1 22565U 93016A   13293.75478045 -.00000045  00000-0  18447-5 0  9930
2 22565 070.8555 341.8263 0009111 280.8303 224.0125 14.12376681 60927
0 COSMOS 2237
1 22565U 93016A   13295.15439966 -.00000041  00000-0  39642-5 0  9942
2 22565 070.8554 338.8781 0009149 279.3480 139.8537 14.12376711 61124
